{"_default": { "214": {"norad_id": "48924", "name": "FARADAY_PHOENIX", "tle1": "1 48924U 21059AX  26165.48957132  .00118286  00000-0  69739-3 0  9996", "tle2": "2 48924  97.6809   3.2190 0002809 311.1332  48.9691 15.77830506277236", "object_type": "PAYLOAD", "criticality_score": 7.0, "last_updated": "2026-06-14T17:46:05.057534+00:00", "maneuver_count": 0, "owner": "N/A"}, "215": {"norad_id": "48951", "name": "DEMO8(TENZING)", "tle1": "1 48951U 21059CA  26165.47413016  .00018716  00000-0  28128-3 0  9997", "tle2": "2 48951  97.7015 358.6877 0006467   6.2920 353.8413 15.54903716276883", "object_type": "PAYLOAD", "criticality_score": 7.0, "last_updated": "2026-06-14T17:46:05.057534+00:00", "maneuver_count": 0, "owner": "N/A"}, "225": {"norad_id": "49263", "name": "CUTE-LASP", "tle1": "1 49263U 21088D   26165.54895216  .00146915  10199-4  43652-3 0  9996", "tle2": "2 49263  97.4170 264.5907 0007696 232.4447 127.6128 15.92466161262133", "object_type": "PAYLOAD", "criticality_score": 7.0, "last_updated": "2026-06-14T17:46:05.057534+00:00", "maneuver_count": 0, "owner": "N/A"}, "248": {"norad_id": "48963", "name": "NAPA-2", "tle1": "1 48963U 21059CN  26165.31751453  .00344921  51611-4  72327-3 0  9991", "tle2": "2 48963  97.6659   4.0943 0003102 239.6762 120.4209 15.98951732277357", "object_type": "PAYLOAD", "criticality_score": 7.0, "last_updated": "2026-06-14T17:46:05.057534+00:00", "maneuver_count": 0, "owner": "N/A"}, "253": {"norad_id": "49399", "name": "Z-SAT", "tle1": "1 49399U 21102E   26165.49579112  .00004627  00000-0  22859-3 0  9996", "tle2": "2 49399  97.3330 200.8999 0014894 255.5727 104.3854 15.18249350253033", "object_type": "PAYLOAD", "criticality_score": 7.0, "last_updated": "2026-06-14T17:46:05.057534+00:00", "maneuver_count": 0, "owner": "N/A"}, "254": {"norad_id": "49396", "name": "TEIKYOSAT-4 (OORURI)", "tle1": "1 49396U 21102B   26165.33652259  .00001556  00000-0  10079-3 0  9999", "tle2": "2 49396  97.3671 194.9308 0010647 307.9554  52.0713 15.09499854252293", "object_type": "PAYLOAD", "criticality_score": 7.0, "last_updated": "2026-06-14T17:46:05.057534+00:00", "maneuver_count": 0, "owner": "N/A"}, "256": {"norad_id": "49402", "name": "KOSEN-1", "tle1": "1 49402U 21102H   26165.38904683  .00007510  00000-0  28718-3 0  9998", "tle2": "2 49402  97.3186 207.6004 0012900 210.7800 149.2684 15.26801384253590", "object_type": "PAYLOAD", "criticality_score": 7.0, "last_updated": "2026-06-14T17:46:05.057534+00:00", "maneuver_count": 0, "owner": "N/A"}, "257": {"norad_id": "50466", "name": "XW-3 (CAS 9)", "tle1": "1 50466U 21131B   26165.48609940  .00000546  00000-0  18215-3 0  9994", "tle2": "2 50466  98.4982 257.8902 0005354 102.9718 257.2069 14.41355538234729", "object_type": "PAYLOAD", "criticality_score": 7.0, "last_updated": "2026-06-14T17:46:05.057534+00:00", "maneuver_count": 0, "owner": "N/A"}, "263": {"norad_id": "51061", "name": "BRO-5", "tle1": "1 51061U 22002CF  26165.47010355  .00026220  00000-0  51596-3 0  9995", "tle2": "2 51061  97.3005 239.1146 0003837 343.3728  16.7396 15.47228862245835", "object_type": "PAYLOAD", "criticality_score": 7.0, "last_updated": "2026-06-14T17:46:05.057534+00:00", "maneuver_count": 0, "owner": "N/A"}, "264": {"norad_id": "50993", "name": "ION SCV-004", "tle1": "1 50993U 22002K   26165.42323575  .00005253  00000-0  18095-3 0  9994", "tle2": "2 50993  97.2838 223.1337 0007483  17.5645 342.5853 15.30427964244872", "object_type": "PAYLOAD", "criticality_score": 7.0, "last_updated": "2026-06-14T17:46:05.057534+00:00", "maneuver_count": 0, "owner": "N/A"}, "319": {"norad_id": "48915", "name": "YAM-3", "tle1": "1 48915U 21059AN  26165.54708689  .00010943  00000-0  20753-3 0  9998", "tle2": "2 48915  97.6986 352.3298 0005218  19.6035 340.5414 15.48504854276589", "object_type": "PAYLOAD", "criticality_score": 7.0, "last_updated": "2026-06-14T17:46:05.057534+00:00", "maneuver_count": 0, "owner": "N/A"}, "328": {"norad_id": "49144", "name": "STARLINK-3100", "tle1": "1 49144U 21082Q   26165.10284084  .00000142  00000-0  19657-4 0  9991", "tle2": "2 49144  70.0001  51.3563 0003013 269.7203  90.3611 14.98325951260422", "object_type": "PAYLOAD", "criticality_score": 8.0, "last_updated": "2026-06-14T17:46:05.057534+00:00", "maneuver_count": 0, "owner": "N/A"}, "338": {"norad_id": "51827", "name": "OBJECT D", "tle1": "1 51827U 22019D   26165.51172421  .00074776  00000-0  60125-3 0  9998", "tle2": "2 51827  97.3673 257.8512 0005393 151.8931 208.2624 15.70715879239286", "object_type": "PAYLOAD", "criticality_score": 7.0, "last_updated": "2026-06-14T17:46:05.057534+00:00", "maneuver_count": 0, "owner": "N/A"}, "405": {"norad_id": "51060", "name": "ETV-A1", "tle1": "1 51060U 22002CE  26165.48070678  .00010515  00000-0  26003-3 0  9994", "tle2": "2 51060  97.2885 231.7935 0004834  13.7741 346.3636 15.40632061245421", "object_type": "PAYLOAD", "criticality_score": 7.0, "last_updated": "2026-06-14T17:46:05.057534+00:00", "maneuver_count": 0, "owner": "N/A"}, "415": {"norad_id": "51284", "name": "LT-1 01A", "tle1": "1 51284U 22007A   26165.49205696  .00000559  00000-0  66107-4 0  9995", "tle2": "2 51284  97.8098 172.9503 0001603  90.3540 269.7860 14.88419117238073", "object_type": "PAYLOAD", "criticality_score": 7.0, "last_updated": "2026-06-14T17:46:05.057534+00:00", "maneuver_count": 0, "owner": "N/A"}, "427": {"norad_id": "49773", "name": "GLOBAL-13", "tle1": "1 49773U 21115BB  26165.01670670  .00022324  00000-0  45874-3 0  9991", "tle2": "2 49773  53.1981  69.6586 0003962 102.9926 257.1525 15.45931965255274", "object_type": "PAYLOAD", "criticality_score": 7.0, "last_updated": "2026-06-14T17:46:05.057534+00:00", "maneuver_count": 0, "owner": "N/A"}, "428": {"norad_id": "49772", "name": "GLOBAL-12", "tle1": "1 49772U 21115BA  26165.43586937  .00034553  00000-0  54081-3 0  9995", "tle2": "2 49772  53.1962  57.7689 0003252  62.9638 297.1705 15.53444105255471", "object_type": "PAYLOAD", "criticality_score": 7.0, "last_updated": "2026-06-14T17:46:05.057534+00:00", "maneuver_count": 0, "owner": "N/A"}, "430": {"norad_id": "51832", "name": "OBJECT J", "tle1": "1 51832U 22019J   26165.50820910  .00003588  00000-0  16753-3 0  9997", "tle2": "2 51832  97.3440 228.3878 0007260 231.9955 128.0625 15.20432794237390", "object_type": "PAYLOAD", "criticality_score": 7.0, "last_updated": "2026-06-14T17:46:05.057534+00:00", "maneuver_count": 0, "owner": "N/A"}, "444": {"norad_id": "49387", "name": "SDGSAT 1", "tle1": "1 49387U 21100A   26165.53161942  .00006156  00000-0  28936-3 0  9995", "tle2": "2 49387  97.2641 212.5803 0006600 310.9293  49.1371 15.19923138255517", "object_type": "PAYLOAD", "criticality_score": 7.0, "last_updated": "2026-06-14T17:46:05.057534+00:00", "maneuver_count": 0, "owner": "N/A"}, "447": {"norad_id": "49469", "name": "GLOBAL-14", "tle1": "1 49469U 21106A   26165.12301878  .00027772  00000-0  47619-3 0  9997", "tle2": "2 49469  42.0054 309.2887 0016284 357.3334   2.7421 15.50466266257657", "object_type": "PAYLOAD", "criticality_score": 7.0, "last_updated": "2026-06-14T17:46:05.057534+00:00", "maneuver_count": 0, "owner": "N/A"}, "449": {"norad_id": "49950", "name": "GLOBAL-16", "tle1": "1 49950U 21120B   26165.00938033  .00027066  00000-0  47216-3 0  9993", "tle2": "2 49950  41.9951  71.8993 0013148 228.2954 131.6766 15.50041363254351", "object_type": "PAYLOAD", "criticality_score": 7.0, "last_updated": "2026-06-14T17:46:05.057534+00:00", "maneuver_count": 0, "owner": "N/A"}, "484": {"norad_id": "51951", "name": "OBJECT F", "tle1": "1 51951U 22023F   26165.50942800  .00013587  00000-0  54134-3 0  9992", "tle2": "2 51951  63.4457 282.5835 0129663 342.5003  17.1661 15.18027505237300", "object_type": "PAYLOAD", "criticality_score": 7.0, "last_updated": "2026-06-14T17:46:05.057534+00:00", "maneuver_count": 0, "owner": "N/A"}, "501": {"norad_id": "51822", "name": "LT-1 01B", "tle1": "1 51822U 22018A   26165.52566109  .00000538  00000-0  63856-4 0  9993", "tle2": "2 51822  97.8102 172.9798 0001597  92.1407 267.9993 14.88415320233318", "object_type": "PAYLOAD", "criticality_score": 7.0, "last_updated": "2026-06-14T17:46:05.057534+00:00", "maneuver_count": 0, "owner": "N/A"}, "507": {"norad_id": "49495", "name": "GAOFEN 3 02", "tle1": "1 49495U 21109A   26165.48192649  .00000367  00000-0  12444-3 0  9991", "tle2": "2 49495  98.4084 173.6169 0003136  23.7010 336.4323 14.42218055239926", "object_type": "PAYLOAD", "criticality_score": 7.0, "last_updated": "2026-06-14T17:46:05.057534+00:00", "maneuver_count": 0, "owner": "N/A"}, "508": {"norad_id": "49316", "name": "OBJECT B", "tle1": "1 49316U 21091B   26165.55603509  .00001433  00000-0  72537-4 0  9998", "tle2": "2 49316  97.4466 353.1708 0014795  54.1226 306.1380 15.18541233258586", "object_type": "PAYLOAD", "criticality_score": 7.0, "last_updated": "2026-06-14T17:46:05.057534+00:00", "maneuver_count": 0, "owner": "N/A"}, "563": {"norad_id": "49949", "name": "GLOBAL-17", "tle1": "1 49949U 21120A   26165.00021375  .00029629  00000-0  47897-3 0  9995", "tle2": "2 49949  41.9957  68.2827 0015303 236.3899 123.5485 15.52104314254406", "object_type": "PAYLOAD", "criticality_score": 7.0, "last_updated": "2026-06-14T17:46:05.057534+00:00", "maneuver_count": 0, "owner": "N/A"}, "565": {"norad_id": "48909", "name": "PACE-1", "tle1": "1 48909U 21059AG  26165.49360258  .00076719  00000-0  42355-3 0  9996", "tle2": "2 48909  97.6759   3.3318 0000953 276.5920  83.5238 15.79429067277376", "object_type": "PAYLOAD", "criticality_score": 7.0, "last_updated": "2026-06-14T17:46:05.057534+00:00", "maneuver_count": 0, "owner": "N/A"}, "640": {"norad_id": "49400", "name": "HIBARI", "tle1": "1 49400U 21102F   26165.39282579  .00010765  00000-0  35368-3 0  9995", "tle2": "2 49400  97.3240 211.3277 0011078 201.7134 158.3640 15.31679850253767", "object_type": "PAYLOAD", "criticality_score": 7.0, "last_updated": "2026-06-14T17:46:05.057534+00:00", "maneuver_count": 0, "owner": "N/A"}}}