OBJECT_NAME,OBJECT_ID,EPOCH,MEAN_MOTION,ECCENTRICITY,INCLINATION,RA_OF_ASC_NODE,ARG_OF_PERICENTER,MEAN_ANOMALY,EPHEMERIS_TYPE,CLASSIFICATION_TYPE,NORAD_CAT_ID,ELEMENT_SET_NO,REV_AT_EPOCH,BSTAR,MEAN_MOTION_DOT,MEAN_MOTION_DDOT
PACE-1,2021-059AG,2026-06-14T11:50:47.262912,15.79429067,.0000953,97.6759,3.3318,276.5920,83.5238,0,U,48909,999,27737,.42355E-3,.76719E-3,0
YAM-3,2021-059AN,2026-06-14T13:07:48.307296,15.48504854,.0005218,97.6986,352.3298,19.6035,340.5414,0,U,48915,999,27658,.20753E-3,.10943E-3,0
FARADAY_PHOENIX,2021-059AX,2026-06-14T11:44:58.962048,15.77830506,.0002809,97.6809,3.2190,311.1332,48.9691,0,U,48924,999,27723,.69739E-3,.118286E-2,0
DEMO8 (TENZING),2021-059CA,2026-06-14T11:22:44.845824,15.54903716,.0006467,97.7015,358.6877,6.2920,353.8413,0,U,48951,999,27688,.28128E-3,.18716E-3,0
NAPA-2,2021-059CN,2026-06-14T07:37:13.255392,15.98951732,.0003102,97.6659,4.0943,239.6762,120.4209,0,U,48963,999,27735,.72327E-3,.344921E-2,.51611E-4
STARLINK-3100,2021-082Q,2026-06-14T02:28:05.448576,14.98325951,.00030135,70.0001,51.3563,269.7203,90.3611,0,U,49144,999,26042,.19656787E-4,.142E-5,0
CUTE,2021-088D,2026-06-14T13:10:29.466624,15.92466161,.0007696,97.4170,264.5907,232.4447,127.6128,0,U,49263,999,26213,.43652E-3,.146915E-2,.10199E-4
2021-091B,2021-091B,2026-06-14T13:20:41.431776,15.18541233,.0014795,97.4466,353.1708,54.1226,306.1380,0,U,49316,999,25858,.72537E-4,.1433E-4,0
SDGSAT 1,2021-100A,2026-06-14T12:45:31.917888,15.19923138,.00066,97.2641,212.5803,310.9293,49.1371,0,U,49387,999,25551,.28936E-3,.6156E-4,0
TEIKYOSAT-4 (OORURI),2021-102B,2026-06-14T08:04:35.551776,15.09499854,.0010647,97.3671,194.9308,307.9554,52.0713,0,U,49396,999,25229,.10079E-3,.1556E-4,0
Z-SAT,2021-102E,2026-06-14T11:53:56.352768,15.18249350,.0014894,97.3330,200.8999,255.5727,104.3854,0,U,49399,999,25303,.22859E-3,.4627E-4,0
HIBARI,2021-102F,2026-06-14T09:25:40.148256,15.31679850,.0011078,97.3240,211.3277,201.7134,158.3640,0,U,49400,999,25376,.35368E-3,.10765E-3,0
KOSEN-1,2021-102H,2026-06-14T09:20:13.646112,15.26801384,.00129,97.3186,207.6004,210.7800,149.2684,0,U,49402,999,25359,.28718E-3,.751E-4,0
GLOBAL-14,2021-106A,2026-06-14T02:57:08.822592,15.50466266,.00162836,42.0054,309.2887,357.3334,2.7421,0,U,49469,999,25765,.47618742E-3,.27772E-3,0
GAOFEN-3 02,2021-109A,2026-06-14T11:33:58.448736,14.42218055,.0003136,98.4084,173.6169,23.7010,336.4323,0,U,49495,999,23992,.12444E-3,.367E-5,0
GLOBAL-12,2021-115BA,2026-06-14T10:27:39.113568,15.53444105,.0003252,53.1962,57.7689,62.9638,297.1705,0,U,49772,999,25547,.54081E-3,.34553E-3,0
GLOBAL-13,2021-115BB,2026-06-14T00:24:03.458880,15.45931965,.00039621,53.1981,69.6586,102.9926,257.1525,0,U,49773,999,25527,.4587362E-3,.22324E-3,0
GLOBAL-17,2021-120A,2026-06-14T00:00:18.468000,15.52104314,.00153028,41.9957,68.2827,236.3899,123.5485,0,U,49949,999,25440,.47896755E-3,.29629E-3,0
GLOBAL-16,2021-120B,2026-06-14T00:13:30.460512,15.50041363,.00131476,41.9951,71.8993,228.2954,131.6766,0,U,49950,999,25435,.4721635E-3,.27066E-3,0
XW-3 (CAS-9),2021-131B,2026-06-14T11:39:58.988160,14.41355538,.0005354,98.4982,257.8902,102.9718,257.2069,0,U,50466,999,23472,.18215E-3,.546E-5,0
ION SCV-004,2022-002K,2026-06-14T10:09:27.568800,15.30427964,.0007483,97.2838,223.1337,17.5645,342.5853,0,U,50993,999,24487,.18095E-3,.5253E-4,0
ETV-A1,2022-002CE,2026-06-14T11:32:13.065792,15.40632061,.0004834,97.2885,231.7935,13.7741,346.3636,0,U,51060,999,24542,.26003E-3,.10515E-3,0
BRO-5,2022-002CF,2026-06-14T11:16:56.946720,15.47228862,.0003837,97.3005,239.1146,343.3728,16.7396,0,U,51061,999,24583,.51596E-3,.2622E-3,0
LUDI TANCE 1-01A (L-SAR 01A),2022-007A,2026-06-14T11:48:33.721344,14.88419117,.0001603,97.8098,172.9503,90.3540,269.7860,0,U,51284,999,23807,.66107E-4,.559E-5,0
LUDI TANCE 1-01B (L-SAR 01B),2022-018A,2026-06-14T12:36:57.118176,14.88415320,.0001597,97.8102,172.9798,92.1407,267.9993,0,U,51822,999,23331,.63856E-4,.538E-5,0
2022-019D,2022-019D,2026-06-14T12:16:52.971744,15.70715879,.0005393,97.3673,257.8512,151.8931,208.2624,0,U,51827,999,23928,.60125E-3,.74776E-3,0
2022-019J,2022-019J,2026-06-14T12:11:49.266240,15.20432794,.000726,97.3440,228.3878,231.9955,128.0625,0,U,51832,999,23739,.16753E-3,.3588E-4,0
2022-023F,2022-023F,2026-06-14T12:13:34.579200,15.18027505,.0129663,63.4457,282.5835,342.5003,17.1661,0,U,51951,999,23730,.54134E-3,.13587E-3,0
